[{"OBJECT_NAME":"STARLINK-31365","OBJECT_ID":"2024-031J","EPOCH":"2026-03-09T21:19:19.090560","MEAN_MOTION":15.30184833,"ECCENTRICITY":0.00011898,"INCLINATION":53.1607,"RA_OF_ASC_NODE":295.7674,"ARG_OF_PERICENTER":93.6804,"MEAN_ANOMALY":266.4333,"EPHEMERIS_TYPE":0,"CLASSIFICATION_TYPE":"U","NORAD_CAT_ID":58973,"ELEMENT_SET_NO":999,"REV_AT_EPOCH":11656,"BSTAR":2.0937015e-5,"MEAN_MOTION_DOT":2.61e-6,"MEAN_MOTION_DDOT":0},{"OBJECT_NAME":"COSMOS 1975","OBJECT_ID":"1988-093A","EPOCH":"2026-03-09T14:15:08.474112","MEAN_MOTION":15.28069249,"ECCENTRICITY":0.0012117,"INCLINATION":82.5181,"RA_OF_ASC_NODE":117.7814,"ARG_OF_PERICENTER":163.8427,"MEAN_ANOMALY":196.3201,"EPHEMERIS_TYPE":0,"CLASSIFICATION_TYPE":"U","NORAD_CAT_ID":19573,"ELEMENT_SET_NO":999,"REV_AT_EPOCH":1939,"BSTAR":0.0002787,"MEAN_MOTION_DOT":7.676e-5,"MEAN_MOTION_DDOT":0}]
